ONEWEB-0216             
1 48801U 21045AL  26031.74324595 -.00000105  00000+0 -31359-3 0  9995
2 48801  87.8989 286.4342 0001503  72.9973 287.1322 13.15547837226365
ONEWEB-0239             
1 48802U 21045AM  26031.97617181 -.00000017  00000+0 -80343-4 0  9997
2 48802  87.8987 286.4020 0000810 103.7221 256.4000 13.15549099226438
ONEWEB-0249             
1 48967U 21060A   26032.01760779  .00021138  00000+0  55222-1 0  9994
2 48967  87.9011 255.8867 0002069  87.0769 273.0599 13.16483219221690
ONEWEB-0250             
1 48968U 21060B   26032.01232237  .00000052  00000+0  87612-4 0  9991
2 48968  87.9007 254.0874 0002018 116.7796 243.3547 13.25824926222170
ONEWEB-0252             
1 48970U 21060D   26032.04920323  .00000070  00000+0  15063-3 0  9997
2 48970  87.9008 255.8727 0001428  77.1471 282.9819 13.16594640221744
ONEWEB-0253             
1 48971U 21060E   26032.03812352  .00000033  00000+0  52081-4 0  9990
2 48971  87.9012 255.8804 0001332  86.1197 274.0086 13.16593635221678
ONEWEB-0254             
1 48972U 21060F   26032.04761848  .00000097  00000+0  22045-3 0  9991
2 48972  87.9013 255.8719 0001242  95.5693 264.5580 13.16593229221672
ONEWEB-0255             
1 48973U 21060G   26032.00962415  .00000118  00000+0  27628-3 0  9997
2 48973  87.9010 255.8910 0001301  91.8907 268.2373 13.16594399221744
ONEWEB-0256             
1 48974U 21060H   26031.88375278 -.00000028  00000+0 -10578-3 0  9996
2 48974  87.9001 255.9222 0001553  80.7325 279.3982 13.16594319221697
ONEWEB-0257             
1 48975U 21060J   26032.06820197  .00000145  00000+0  34540-3 0  9996
2 48975  87.9012 255.8691 0001306  83.7539 276.3741 13.16593763221675
ONEWEB-0258             
1 48976U 21060K   26032.06978872  .00000143  00000+0  34025-3 0  9997
2 48976  87.9007 255.8812 0001537  88.3059 271.8249 13.16593200221689
ONEWEB-0259             
1 48977U 21060L   26031.91145994  .00000121  00000+0  28238-3 0  9997
2 48977  87.9013 255.9101 0001355  88.6272 271.5015 13.16593415221694
ONEWEB-0260             
1 48978U 21060M   26032.05474548  .00000076  00000+0  16468-3 0  9995
2 48978  87.9000 255.8897 0001564  69.4063 290.7236 13.16594861221693
ONEWEB-0261             
1 48979U 21060N   26031.64467931  .00000014  00000+0  21203-5 0  9995
2 48979  87.9003 255.9736 0001104  81.8853 278.2403 13.16594318221699
ONEWEB-0262             
1 48980U 21060P   26032.08087151  .00000083  00000+0  18283-3 0  9996
2 48980  87.9011 255.8644 0001429  98.5670 261.5623 13.16593590221712
ONEWEB-0263             
1 48981U 21060Q   26032.03653117  .00000044  00000+0  82188-4 0  9996
2 48981  87.9012 255.8847 0001103  91.2915 268.8343 13.16594035221679
ONEWEB-0264             
1 48982U 21060R   26031.99774896  .00000254  00000+0  63090-3 0  9992
2 48982  87.9014 255.8970 0001335  77.0767 283.0513 13.16593834221677
