[{"OBJECT_NAME":"ONEWEB-0216","OBJECT_ID":"2021-045AL","EPOCH":"2026-01-31T17:50:16.450080","MEAN_MOTION":13.15547837,"ECCENTRICITY":0.00015038,"INCLINATION":87.8989,"RA_OF_ASC_NODE":286.4342,"ARG_OF_PERICENTER":72.9973,"MEAN_ANOMALY":287.1322,"EPHEMERIS_TYPE":0,"CLASSIFICATION_TYPE":"U","NORAD_CAT_ID":48801,"ELEMENT_SET_NO":999,"REV_AT_EPOCH":22636,"BSTAR":-0.00031359033,"MEAN_MOTION_DOT":-1.05e-6,"MEAN_MOTION_DDOT":0},{"OBJECT_NAME":"ONEWEB-0239","OBJECT_ID":"2021-045AM","EPOCH":"2026-01-31T23:25:41.244384","MEAN_MOTION":13.15549099,"ECCENTRICITY":8.109e-5,"INCLINATION":87.8987,"RA_OF_ASC_NODE":286.402,"ARG_OF_PERICENTER":103.7221,"MEAN_ANOMALY":256.4,"EPHEMERIS_TYPE":0,"CLASSIFICATION_TYPE":"U","NORAD_CAT_ID":48802,"ELEMENT_SET_NO":999,"REV_AT_EPOCH":22643,"BSTAR":-8.0343273e-5,"MEAN_MOTION_DOT":-1.7e-7,"MEAN_MOTION_DDOT":0},{"OBJECT_NAME":"ONEWEB-0249","OBJECT_ID":"2021-060A","EPOCH":"2026-02-01T00:25:21.313056","MEAN_MOTION":13.16483219,"ECCENTRICITY":0.00020697,"INCLINATION":87.9011,"RA_OF_ASC_NODE":255.8867,"ARG_OF_PERICENTER":87.0769,"MEAN_ANOMALY":273.0599,"EPHEMERIS_TYPE":0,"CLASSIFICATION_TYPE":"U","NORAD_CAT_ID":48967,"ELEMENT_SET_NO":999,"REV_AT_EPOCH":22169,"BSTAR":0.055222254,"MEAN_MOTION_DOT":0.00021138,"MEAN_MOTION_DDOT":0},{"OBJECT_NAME":"ONEWEB-0250","OBJECT_ID":"2021-060B","EPOCH":"2026-02-01T00:17:44.652768","MEAN_MOTION":13.25824926,"ECCENTRICITY":0.0002018,"INCLINATION":87.9007,"RA_OF_ASC_NODE":254.0874,"ARG_OF_PERICENTER":116.7796,"MEAN_ANOMALY":243.3547,"EPHEMERIS_TYPE":0,"CLASSIFICATION_TYPE":"U","NORAD_CAT_ID":48968,"ELEMENT_SET_NO":999,"REV_AT_EPOCH":22217,"BSTAR":8.7612142e-5,"MEAN_MOTION_DOT":5.2e-7,"MEAN_MOTION_DDOT":0},{"OBJECT_NAME":"ONEWEB-0252","OBJECT_ID":"2021-060D","EPOCH":"2026-02-01T01:10:51.159072","MEAN_MOTION":13.1659464,"ECCENTRICITY":0.00014283,"INCLINATION":87.9008,"RA_OF_ASC_NODE":255.8727,"ARG_OF_PERICENTER":77.1471,"MEAN_ANOMALY":282.9819,"EPHEMERIS_TYPE":0,"CLASSIFICATION_TYPE":"U","NORAD_CAT_ID":48970,"ELEMENT_SET_NO":999,"REV_AT_EPOCH":22174,"BSTAR":0.00015062883,"MEAN_MOTION_DOT":7.0e-7,"MEAN_MOTION_DDOT":0},{"OBJECT_NAME":"ONEWEB-0253","OBJECT_ID":"2021-060E","EPOCH":"2026-02-01T00:54:53.872128","MEAN_MOTION":13.16593635,"ECCENTRICITY":0.00013326,"INCLINATION":87.9012,"RA_OF_ASC_NODE":255.8804,"ARG_OF_PERICENTER":86.1197,"MEAN_ANOMALY":274.0086,"EPHEMERIS_TYPE":0,"CLASSIFICATION_TYPE":"U","NORAD_CAT_ID":48971,"ELEMENT_SET_NO":999,"REV_AT_EPOCH":22167,"BSTAR":5.2081393e-5,"MEAN_MOTION_DOT":3.3e-7,"MEAN_MOTION_DDOT":0},{"OBJECT_NAME":"ONEWEB-0254","OBJECT_ID":"2021-060F","EPOCH":"2026-02-01T01:08:34.236672","MEAN_MOTION":13.16593229,"ECCENTRICITY":0.00012425,"INCLINATION":87.9013,"RA_OF_ASC_NODE":255.8719,"ARG_OF_PERICENTER":95.5693,"MEAN_ANOMALY":264.558,"EPHEMERIS_TYPE":0,"CLASSIFICATION_TYPE":"U","NORAD_CAT_ID":48972,"ELEMENT_SET_NO":999,"REV_AT_EPOCH":22167,"BSTAR":0.00022044648,"MEAN_MOTION_DOT":9.7e-7,"MEAN_MOTION_DDOT":0},{"OBJECT_NAME":"ONEWEB-0255","OBJECT_ID":"2021-060G","EPOCH":"2026-02-01T00:13:51.526560","MEAN_MOTION":13.16594399,"ECCENTRICITY":0.00013015,"INCLINATION":87.901,"RA_OF_ASC_NODE":255.891,"ARG_OF_PERICENTER":91.8907,"MEAN_ANOMALY":268.2373,"EPHEMERIS_TYPE":0,"CLASSIFICATION_TYPE":"U","NORAD_CAT_ID":48973,"ELEMENT_SET_NO":999,"REV_AT_EPOCH":22174,"BSTAR":0.00027628462,"MEAN_MOTION_DOT":1.18e-6,"MEAN_MOTION_DDOT":0},{"OBJECT_NAME":"ONEWEB-0256","OBJECT_ID":"2021-060H","EPOCH":"2026-01-31T21:12:36.240192","MEAN_MOTION":13.16594319,"ECCENTRICITY":0.00015536,"INCLINATION":87.9001,"RA_OF_ASC_NODE":255.9222,"ARG_OF_PERICENTER":80.7325,"MEAN_ANOMALY":279.3982,"EPHEMERIS_TYPE":0,"CLASSIFICATION_TYPE":"U","NORAD_CAT_ID":48974,"ELEMENT_SET_NO":999,"REV_AT_EPOCH":22169,"BSTAR":-0.00010578047,"MEAN_MOTION_DOT":-2.8e-7,"MEAN_MOTION_DDOT":0},{"OBJECT_NAME":"ONEWEB-0257","OBJECT_ID":"2021-060J","EPOCH":"2026-02-01T01:38:12.650208","MEAN_MOTION":13.16593763,"ECCENTRICITY":0.00013068,"INCLINATION":87.9012,"RA_OF_ASC_NODE":255.8691,"ARG_OF_PERICENTER":83.7539,"MEAN_ANOMALY":276.3741,"EPHEMERIS_TYPE":0,"CLASSIFICATION_TYPE":"U","NORAD_CAT_ID":48975,"ELEMENT_SET_NO":999,"REV_AT_EPOCH":22167,"BSTAR":0.00034540422,"MEAN_MOTION_DOT":1.45e-6,"MEAN_MOTION_DDOT":0},{"OBJECT_NAME":"ONEWEB-0258","OBJECT_ID":"2021-060K","EPOCH":"2026-02-01T01:40:29.745408","MEAN_MOTION":13.165932,"ECCENTRICITY":0.00015379,"INCLINATION":87.9007,"RA_OF_ASC_NODE":255.8812,"ARG_OF_PERICENTER":88.3059,"MEAN_ANOMALY":271.8249,"EPHEMERIS_TYPE":0,"CLASSIFICATION_TYPE":"U","NORAD_CAT_ID":48976,"ELEMENT_SET_NO":999,"REV_AT_EPOCH":22168,"BSTAR":0.00034025369,"MEAN_MOTION_DOT":1.43e-6,"MEAN_MOTION_DDOT":0},{"OBJECT_NAME":"ONEWEB-0259","OBJECT_ID":"2021-060L","EPOCH":"2026-01-31T21:52:30.138816","MEAN_MOTION":13.16593415,"ECCENTRICITY":0.00013557,"INCLINATION":87.9013,"RA_OF_ASC_NODE":255.9101,"ARG_OF_PERICENTER":88.6272,"MEAN_ANOMALY":271.5015,"EPHEMERIS_TYPE":0,"CLASSIFICATION_TYPE":"U","NORAD_CAT_ID":48977,"ELEMENT_SET_NO":999,"REV_AT_EPOCH":22169,"BSTAR":0.00028237924,"MEAN_MOTION_DOT":1.21e-6,"MEAN_MOTION_DDOT":0},{"OBJECT_NAME":"ONEWEB-0260","OBJECT_ID":"2021-060M","EPOCH":"2026-02-01T01:18:50.009472","MEAN_MOTION":13.16594861,"ECCENTRICITY":0.00015643,"INCLINATION":87.9,"RA_OF_ASC_NODE":255.8897,"ARG_OF_PERICENTER":69.4063,"MEAN_ANOMALY":290.7236,"EPHEMERIS_TYPE":0,"CLASSIFICATION_TYPE":"U","NORAD_CAT_ID":48978,"ELEMENT_SET_NO":999,"REV_AT_EPOCH":22169,"BSTAR":0.00016467785,"MEAN_MOTION_DOT":7.6e-7,"MEAN_MOTION_DDOT":0},{"OBJECT_NAME":"ONEWEB-0261","OBJECT_ID":"2021-060N","EPOCH":"2026-01-31T15:28:20.292384","MEAN_MOTION":13.16594318,"ECCENTRICITY":0.00011046,"INCLINATION":87.9003,"RA_OF_ASC_NODE":255.9736,"ARG_OF_PERICENTER":81.8853,"MEAN_ANOMALY":278.2403,"EPHEMERIS_TYPE":0,"CLASSIFICATION_TYPE":"U","NORAD_CAT_ID":48979,"ELEMENT_SET_NO":999,"REV_AT_EPOCH":22169,"BSTAR":2.120265e-6,"MEAN_MOTION_DOT":1.4e-7,"MEAN_MOTION_DDOT":0},{"OBJECT_NAME":"ONEWEB-0262","OBJECT_ID":"2021-060P","EPOCH":"2026-02-01T01:56:27.298464","MEAN_MOTION":13.1659359,"ECCENTRICITY":0.00014291,"INCLINATION":87.9011,"RA_OF_ASC_NODE":255.8644,"ARG_OF_PERICENTER":98.567,"MEAN_ANOMALY":261.5623,"EPHEMERIS_TYPE":0,"CLASSIFICATION_TYPE":"U","NORAD_CAT_ID":48980,"ELEMENT_SET_NO":999,"REV_AT_EPOCH":22171,"BSTAR":0.00018282692,"MEAN_MOTION_DOT":8.3e-7,"MEAN_MOTION_DDOT":0},{"OBJECT_NAME":"ONEWEB-0263","OBJECT_ID":"2021-060Q","EPOCH":"2026-02-01T00:52:36.293088","MEAN_MOTION":13.16594035,"ECCENTRICITY":0.00011039,"INCLINATION":87.9012,"RA_OF_ASC_NODE":255.8847,"ARG_OF_PERICENTER":91.2915,"MEAN_ANOMALY":268.8343,"EPHEMERIS_TYPE":0,"CLASSIFICATION_TYPE":"U","NORAD_CAT_ID":48981,"ELEMENT_SET_NO":999,"REV_AT_EPOCH":22167,"BSTAR":8.2188029e-5,"MEAN_MOTION_DOT":4.4e-7,"MEAN_MOTION_DDOT":0},{"OBJECT_NAME":"ONEWEB-0264","OBJECT_ID":"2021-060R","EPOCH":"2026-01-31T23:56:45.510144","MEAN_MOTION":13.16593834,"ECCENTRICITY":0.0001335,"INCLINATION":87.9014,"RA_OF_ASC_NODE":255.897,"ARG_OF_PERICENTER":77.0767,"MEAN_ANOMALY":283.0513,"EPHEMERIS_TYPE":0,"CLASSIFICATION_TYPE":"U","NORAD_CAT_ID":48982,"ELEMENT_SET_NO":999,"REV_AT_EPOCH":22167,"BSTAR":0.00063090204,"MEAN_MOTION_DOT":2.54e-6,"MEAN_MOTION_DDOT":0}]
